{
"type": "FeatureCollection",
"name": "Pilot_Zones",
"crs": { "type": "name", "properties": { "name": "urn:ogc:def:crs:OGC:1.3:CRS84" } },
"features": [
{ "type": "Feature", "properties": { "adm3_name": "Srifa", "adm3_name1": "صريفا", "adm3_pcode": "62266" }, "geometry": { "type": "MultiPolygon", "coordinates": [ [ [ [ 35.392617210000139, 33.289405417000125 ], [ 35.392865762999975, 33.289468916000146 ], [ 35.3940093490001, 33.289560877000042 ], [ 35.394467591000193, 33.289539133000176 ], [ 35.394717454000158, 33.289487235000138 ], [ 35.394973904000096, 33.28946997100013 ], [ 35.395230220000144, 33.289487792000102 ], [ 35.395427226000095, 33.289457866000134 ], [ 35.395603348000122, 33.289299787000118 ], [ 35.395794603000013, 33.289154917000189 ], [ 35.395999959000164, 33.289024367000025 ], [ 35.396260811000047, 33.28888837500017 ], [ 35.396503685000084, 33.288819168000032 ], [ 35.396760158000063, 33.288815428000078 ], [ 35.397005726000145, 33.288877461000141 ], [ 35.397217032000015, 33.288999395000133 ], [ 35.397484262000148, 33.288863221000042 ], [ 35.398668514000065, 33.289274417000115 ], [ 35.398806004000051, 33.289454482 ], [ 35.399030195000023, 33.289556187000187 ], [ 35.399540221000166, 33.289515251000182 ], [ 35.399794299, 33.289484267999967 ], [ 35.400028222000117, 33.289395603 ], [ 35.400224043000037, 33.289256155000032 ], [ 35.400366752000082, 33.289076673000125 ], [ 35.40041981100012, 33.28886995400012 ], [ 35.400496293, 33.288666149000051 ], [ 35.400691051000138, 33.288529079999989 ], [ 35.400943036000115, 33.28850144200004 ], [ 35.40143027900001, 33.288590480000096 ], [ 35.401685242000099, 33.288608688000181 ], [ 35.401928392000116, 33.288541872000167 ], [ 35.402121228000112, 33.288400681000155 ], [ 35.403037653000183, 33.287067844999967 ], [ 35.402900585000168, 33.28679577000014 ], [ 35.403371401000072, 33.285988562000114 ], [ 35.4036722190001, 33.28615843200015 ], [ 35.404116554000154, 33.285716483999977 ], [ 35.404771844000038, 33.286057930000027 ], [ 35.405012746000068, 33.28613311800018 ], [ 35.405267065000032, 33.286164556000131 ], [ 35.405523741000138, 33.286151499000027 ], [ 35.405771368000103, 33.286093907000065 ], [ 35.405999820000034, 33.285994292000055 ], [ 35.406205429000067, 33.285851610000179 ], [ 35.406455239000138, 33.285904110000047 ], [ 35.40670762200017, 33.285946787000114 ], [ 35.406961902000035, 33.285979911000027 ], [ 35.407218085000181, 33.286003200000096 ], [ 35.407475169000122, 33.286016358000097 ], [ 35.407732808000048, 33.28601994100012 ], [ 35.407942024000135, 33.286027958000034 ], [ 35.408197736000147, 33.286013048000029 ], [ 35.408435808000149, 33.285932891000073 ], [ 35.408636926999975, 33.285839737000174 ], [ 35.408891323999967, 33.285808881000094 ], [ 35.409147283000095, 33.285827230000109 ], [ 35.409394957000188, 33.285885186000087 ], [ 35.409651014000133, 33.285884512000052 ], [ 35.409891640000183, 33.285810029000174 ], [ 35.410086760000127, 33.285670836000122 ], [ 35.410201869000161, 33.285493716000019 ], [ 35.410314023000183, 33.285299076000115 ], [ 35.41046234200013, 33.285122491000152 ], [ 35.410642697000014, 33.284968404000097 ], [ 35.410850301000153, 33.284840825000117 ], [ 35.411079695000126, 33.28474361200017 ], [ 35.411295124000105, 33.284684927000171 ], [ 35.412735394000094, 33.285067826000159 ], [ 35.41297948600004, 33.285135721000188 ], [ 35.413234530000182, 33.285164758000178 ], [ 35.413491151000187, 33.285153939000054 ], [ 35.413741290000189, 33.285103557000184 ], [ 35.413938199000029, 33.285032873000034 ], [ 35.414771068000107, 33.284900662000155 ], [ 35.414833606000116, 33.284703389000128 ], [ 35.414824020000083, 33.284372214000143 ], [ 35.414766389000192, 33.284161741000048 ], [ 35.41465944700019, 33.283965274000025 ], [ 35.414507703000083, 33.283791200000053 ], [ 35.414369488000091, 33.28361241000016 ], [ 35.414385720000041, 33.283400303000121 ], [ 35.414523643000166, 33.283075299000018 ], [ 35.414567074000104, 33.282862360000081 ], [ 35.414570641000125, 33.282646387000057 ], [ 35.414532890000146, 33.28243242800005 ], [ 35.414456374, 33.282226162000029 ], [ 35.414318757000103, 33.281504698000049 ], [ 35.414338894000082, 33.281253619000154 ], [ 35.414341456000102, 33.281037630000128 ], [ 35.414329595000083, 33.280821409000055 ], [ 35.414303616000154, 33.280606230000103 ], [ 35.414263844000061, 33.280392661000121 ], [ 35.414210271000172, 33.280180986000119 ], [ 35.414138151000088, 33.279973381000048 ], [ 35.414071090000107, 33.279764588000091 ], [ 35.414008085000148, 33.279554593000057 ], [ 35.413972738000155, 33.279338278000182 ], [ 35.413948106000078, 33.279122980000125 ], [ 35.41392213000006, 33.278907800000127 ], [ 35.413894472000038, 33.278692735000163 ], [ 35.41386580600016, 33.278477795000128 ], [ 35.413835456000129, 33.278263110000069 ], [ 35.413803433000055, 33.278048256000034 ], [ 35.413747499000067, 33.277837246000161 ], [ 35.413675385000147, 33.277629500000046 ], [ 35.413586385000087, 33.277426557000183 ], [ 35.413481493000063, 33.27722899500003 ], [ 35.413361019000092, 33.277037946000121 ], [ 35.413225620000162, 33.276853987000095 ], [ 35.413086819000114, 33.276672086000019 ], [ 35.412946662000138, 33.276490867000064 ], [ 35.41277995400003, 33.276326274000041 ], [ 35.412589324000066, 33.276180884000098 ], [ 35.412378063000119, 33.276057429000048 ], [ 35.41114219800005, 33.27556056300017 ], [ 35.410904748000121, 33.27564425900016 ], [ 35.410660594000035, 33.275712909000163 ], [ 35.410429737000186, 33.275639725000133 ], [ 35.41062866700014, 33.275170135 ], [ 35.409890663000169, 33.274662375000105 ], [ 35.409865531000037, 33.274454818000095 ], [ 35.409875085000124, 33.274226962000057 ], [ 35.409672471000079, 33.274239769000133 ], [ 35.407818317000135, 33.27406465100006 ], [ 35.407871459999967, 33.273661771000093 ], [ 35.406565226000112, 33.273531103000096 ], [ 35.406351084000107, 33.273505107000119 ], [ 35.406134469000051, 33.273499221000122 ], [ 35.40591873700015, 33.273513502000185 ], [ 35.404935140000021, 33.273653368 ], [ 35.405148069000177, 33.274569680000184 ], [ 35.406571019000125, 33.274512001000119 ], [ 35.406637678000038, 33.274928507000084 ], [ 35.406594048000159, 33.275105364000069 ], [ 35.406467909000128, 33.27525144000009 ], [ 35.406299539000031, 33.275366114000178 ], [ 35.406114864000131, 33.275460092000117 ], [ 35.405912736000118, 33.275524900000164 ], [ 35.405700247000027, 33.275558538000098 ], [ 35.405484496000042, 33.275573381000186 ], [ 35.405271374000165, 33.275605318000032 ], [ 35.40506353100011, 33.275655940000149 ], [ 35.404862985000193, 33.275724859000093 ], [ 35.404672446000177, 33.275810990000025 ], [ 35.404482883000185, 33.275898545000075 ], [ 35.404278826999985, 33.275959515000125 ], [ 35.404066011000168, 33.275992722000126 ], [ 35.403849826000112, 33.275997127000039 ], [ 35.403635310000141, 33.275972529000171 ], [ 35.403428487000156, 33.275919729000066 ], [ 35.403204505000133, 33.275824941 ], [ 35.402989068000124, 33.276354144000038 ], [ 35.403204293000101, 33.27633309600003 ], [ 35.403420278000112, 33.276322771000025 ], [ 35.403636690000098, 33.27632316100005 ], [ 35.403852850000192, 33.276334539000061 ], [ 35.404067760000032, 33.276356607000139 ], [ 35.404280747000143, 33.276389353000184 ], [ 35.404496018000145, 33.27641029800003 ], [ 35.404712237000183, 33.276419138000051 ], [ 35.404929081000148, 33.276415306000104 ], [ 35.405144527000061, 33.276399190000177 ], [ 35.405381071000079, 33.277266280000163 ], [ 35.404746858000067, 33.277459124000131 ], [ 35.405060774000106, 33.279389719999983 ], [ 35.404558653000038, 33.279586806000168 ], [ 35.404708001000188, 33.279717733000041 ], [ 35.404807674000153, 33.279878580000116 ], [ 35.404678366000098, 33.281278935000103 ], [ 35.404134195000097, 33.281333294000035 ], [ 35.403726923000193, 33.279612006000093 ], [ 35.403956270000037, 33.27932583200004 ], [ 35.403954999, 33.279073141000026 ], [ 35.403312784000093, 33.279174955000087 ], [ 35.401843141000086, 33.278644769000095 ], [ 35.400843871000177, 33.278088625000066 ], [ 35.401110907000088, 33.277196967 ], [ 35.402215949000038, 33.277250743000025 ], [ 35.40208540600014, 33.276650289000088 ], [ 35.402055613000073, 33.27647126100004 ], [ 35.402110283000184, 33.276296275000107 ], [ 35.402240071000051, 33.27615237700013 ], [ 35.402426029000026, 33.276061243000015 ], [ 35.402518124000096, 33.275834298000177 ], [ 35.401934690000132, 33.275685088000102 ], [ 35.401726384000085, 33.275638462000131 ], [ 35.401512832000037, 33.275659816000143 ], [ 35.401323629999979, 33.275746103000074 ], [ 35.40009013800011, 33.276862559000051 ], [ 35.399826116999975, 33.275175985000146 ], [ 35.398107543000094, 33.275585050000132 ], [ 35.39817717700015, 33.277450554000154 ], [ 35.397920950000184, 33.277474311000049 ], [ 35.397663760000057, 33.27748156500013 ], [ 35.397406610000075, 33.277472471000067 ], [ 35.397150840000052, 33.277447054000049 ], [ 35.396898129000192, 33.277405337000062 ], [ 35.396650142000055, 33.277347774000191 ], [ 35.396414575000165, 33.277260817000183 ], [ 35.396167304000073, 33.27720143200014 ], [ 35.395912324999983, 33.277170808999983 ], [ 35.395654994000097, 33.277169601000082 ], [ 35.395401218000075, 33.277203539000027 ], [ 35.395147713000142, 33.277240299000084 ], [ 35.394890826000108, 33.277248961000055 ], [ 35.394634251000127, 33.277229443000067 ], [ 35.394383351000158, 33.277181974000143 ], [ 35.39414180000017, 33.277107316000183 ], [ 35.393913584000074, 33.277007227000126 ], [ 35.39370338000009, 33.276882628000067 ], [ 35.39350384100004, 33.27674664500006 ], [ 35.393288467000161, 33.276628021000192 ], [ 35.393068592000191, 33.276515523000114 ], [ 35.392844217000174, 33.276409012000101 ], [ 35.392616011000086, 33.27630863800016 ], [ 35.392384309000136, 33.27621440900009 ], [ 35.392148769000187, 33.276126598000189 ], [ 35.391906849000065, 33.276053622 ], [ 35.39166212300006, 33.275985954000134 ], [ 35.391415261000077, 33.275923606000106 ], [ 35.391166929000121, 33.275866871000119 ], [ 35.390916799000024, 33.275815319000117 ], [ 35.390721676000112, 33.275779317000172 ], [ 35.390676614000142, 33.27600236700016 ], [ 35.390655548000154, 33.276217915000188 ], [ 35.390658963000192, 33.27643400200003 ], [ 35.390505489000077, 33.276541851 ], [ 35.39027513700006, 33.276447357000166 ], [ 35.390089654000064, 33.276298632000021 ], [ 35.389915684000073, 33.275955905000046 ], [ 35.38969744100001, 33.275933054000177 ], [ 35.389439954000125, 33.275924220000149 ], [ 35.389183034000041, 33.27593441900018 ], [ 35.389141699000049, 33.27614118300005 ], [ 35.389249578000033, 33.276337688000069 ], [ 35.389373044000081, 33.276527542000167 ], [ 35.389477544000044, 33.276725120000151 ], [ 35.389563105000093, 33.276929153000083 ], [ 35.389628752000135, 33.277138360000095 ], [ 35.389674184000171, 33.277351043000181 ], [ 35.389719964000051, 33.277636164000057 ], [ 35.389694260000056, 33.277848960000085 ], [ 35.389487773000099, 33.278058537000106 ], [ 35.389374978000092, 33.278250188000072 ], [ 35.389399184000126, 33.278816378000158 ], [ 35.389521975999969, 33.278991988000143 ], [ 35.389131618000192, 33.278997059000119 ], [ 35.388885134000077, 33.27893259800004 ], [ 35.388638588000106, 33.27887081300014 ], [ 35.388390985000115, 33.278811266000105 ], [ 35.388142648999974, 33.278754383000091 ], [ 35.387893250000047, 33.278700019000041 ], [ 35.387129758000128, 33.27960767400009 ], [ 35.387312148000092, 33.279672364000135 ], [ 35.387555859000145, 33.279740728000093 ], [ 35.387808195000048, 33.279784290000123 ], [ 35.38806446000018, 33.279802972000084 ], [ 35.390942066999969, 33.279820695000069 ], [ 35.390934584000149, 33.280729091000069 ], [ 35.390825169999971, 33.280919671000049 ], [ 35.390592449, 33.281000445000132 ], [ 35.389859134000176, 33.28083112700017 ], [ 35.389520230000187, 33.281486539000014 ], [ 35.389800154999989, 33.281702046000191 ], [ 35.389944385000035, 33.281879553000067 ], [ 35.389998608000155, 33.282089560000088 ], [ 35.389864984000155, 33.282675593000192 ], [ 35.389856985999984, 33.282891777000145 ], [ 35.389881899000045, 33.283106805000159 ], [ 35.389930647000142, 33.283306858000117 ], [ 35.390315423000175, 33.283166127000072 ], [ 35.39055959600006, 33.283098363000192 ], [ 35.390814307000085, 33.28306839600009 ], [ 35.39107176300007, 33.283064967000087 ], [ 35.391327222000143, 33.283089970000105 ], [ 35.391577001000144, 33.283143064000058 ], [ 35.391815758000064, 33.283223177000025 ], [ 35.392040504000192, 33.283328851000078 ], [ 35.392246583000087, 33.283458318000044 ], [ 35.392738218000034, 33.28380718000011 ], [ 35.39334357700011, 33.283325466000065 ], [ 35.393497536000154, 33.283153079000101 ], [ 35.393705467000188, 33.283026804000031 ], [ 35.393948646000126, 33.282958312000062 ], [ 35.394252285000164, 33.282960275000107 ], [ 35.394584723000094, 33.283140122000191 ], [ 35.39445593500011, 33.283327009000061 ], [ 35.394369054000094, 33.283530219 ], [ 35.394322213000066, 33.28380171900011 ], [ 35.394302160999985, 33.284017284000072 ], [ 35.394256666000047, 33.284230183000034 ], [ 35.394187116000182, 33.284438464000118 ], [ 35.394071878000034, 33.284678134000046 ], [ 35.395119011000077, 33.285299653000038 ], [ 35.395305681000082, 33.285441765000087 ], [ 35.395338105000121, 33.285651840000128 ], [ 35.395194490000051, 33.28582679200008 ], [ 35.395024149000051, 33.286011034000012 ], [ 35.394836881000174, 33.286157940000123 ], [ 35.39460233900013, 33.286244470000156 ], [ 35.39434740300004, 33.286254713 ], [ 35.39409131300016, 33.286271279000175 ], [ 35.393852901000116, 33.286350980000066 ], [ 35.393653806000088, 33.286486701000058 ], [ 35.393465871000103, 33.286633171000062 ], [ 35.393282846000147, 33.286785075000012 ], [ 35.393026503000158, 33.286885622999989 ], [ 35.393021403000091, 33.286669508000159 ], [ 35.392995477000056, 33.286454325000193 ], [ 35.392689842000095, 33.286655394000036 ], [ 35.392565680000132, 33.286845032000087 ], [ 35.392450162000159, 33.287038193 ], [ 35.392006908000099, 33.287678111000048 ], [ 35.391902038000126, 33.28787510899997 ], [ 35.391852871000026, 33.28808682 ], [ 35.391862002000153, 33.288302577000024 ], [ 35.391929026000184, 33.28851081900018 ], [ 35.39231476600014, 33.289160804000062 ], [ 35.392617210000139, 33.289405417000125 ] ] ] ] } },
{ "type": "Feature", "properties": { "adm3_name": "Zaoutar El-Gharbiyeh", "adm3_name1": "زوطر الغربية", "adm3_pcode": "71364" }, "geometry": { "type": "MultiPolygon", "coordinates": [ [ [ [ 35.467015592000109, 33.332771007000133 ], [ 35.467076959999986, 33.332410221000146 ], [ 35.467107893000161, 33.332195799000147 ], [ 35.467121734000159, 33.331979984000156 ], [ 35.467141951000144, 33.331764268000086 ], [ 35.467160491000072, 33.331548526000176 ], [ 35.467177351000032, 33.331332758000087 ], [ 35.467192876000183, 33.331116687000076 ], [ 35.467206048000037, 33.330900720000045 ], [ 35.467103857000041, 33.32908534000012 ], [ 35.467088824000086, 33.328869497000085 ], [ 35.467113730000051, 33.328654276000123 ], [ 35.467177783000068, 33.328445162999969 ], [ 35.467279874000099, 33.328246648000174 ], [ 35.467416869000147, 33.328063896000174 ], [ 35.467586324000081, 33.327901097000108 ], [ 35.468135522000182, 33.327524521000043 ], [ 35.468222855000079, 33.327325211000073 ], [ 35.46814370900006, 33.327123872000186 ], [ 35.468050132000087, 33.326922306000029 ], [ 35.467955879000158, 33.326721012000064 ], [ 35.467916224000192, 33.326555799000175 ], [ 35.467911269000012, 33.326339550000114 ], [ 35.467925110000181, 33.326123594000023 ], [ 35.467957387000126, 33.325908911999989 ], [ 35.46800840200018, 33.32569705800006 ], [ 35.468074467, 33.325487835000104 ], [ 35.468158219000031, 33.325283396000145 ], [ 35.468259640000156, 33.325084588000038 ], [ 35.468378697000162, 33.32489281900007 ], [ 35.468514699000025, 33.324709064000047 ], [ 35.468666281000139, 33.324534289000042 ], [ 35.468733781000026, 33.324351157000024 ], [ 35.468494121000106, 33.324273159000143 ], [ 35.468279886000062, 33.324153702000103 ], [ 35.468101358000013, 33.32399844400004 ], [ 35.467966095000122, 33.32381483100005 ], [ 35.467860002000123, 33.323617721000062 ], [ 35.467774205000069, 33.323413740000149 ], [ 35.467710013000101, 33.323204320000059 ], [ 35.467666721000057, 33.322991137000088 ], [ 35.467645640000171, 33.322775482000111 ], [ 35.467303801000014, 33.322384595000187 ], [ 35.466413145000047, 33.321429218000105 ], [ 35.466242839000188, 33.321266898000147 ], [ 35.466087534000053, 33.321094244000108 ], [ 35.465948551000167, 33.320912262000149 ], [ 35.465826199000162, 33.320722083000135 ], [ 35.465721466000105, 33.320524570000032 ], [ 35.465634665000152, 33.320320854000045 ], [ 35.46555326400005, 33.320115814000133 ], [ 35.465451920000191, 33.319916943000123 ], [ 35.465348545000097, 33.319718887000079 ], [ 35.465243479000094, 33.319521368000153 ], [ 35.465136382000026, 33.319324663000145 ], [ 35.465027256000042, 33.319128631000069 ], [ 35.464916770000173, 33.318933422000157 ], [ 35.464803919000133, 33.318738882000048 ], [ 35.464694114000054, 33.318543261000116 ], [ 35.464550377000137, 33.318364022000139 ], [ 35.464367432000188, 33.318212071000062 ], [ 35.464152870000191, 33.318093166000097 ], [ 35.463913941000044, 33.318013478000069 ], [ 35.463683767000191, 33.317917438000109 ], [ 35.463489502000186, 33.317776443000128 ], [ 35.463342362999981, 33.317599403000031 ], [ 35.463252847000035, 33.317397334000077 ], [ 35.463225379000107, 33.317182706000096 ], [ 35.463181765000058, 33.316969518000064 ], [ 35.463116239000101, 33.31676049500004 ], [ 35.463029109000047, 33.316556913000113 ], [ 35.462928114000078, 33.316357906000064 ], [ 35.462813575000155, 33.316164182000193 ], [ 35.462682760000064, 33.315977814000064 ], [ 35.462536655000122, 33.315799803000175 ], [ 35.462398995000115, 33.315619388000073 ], [ 35.462365793, 33.31540607900007 ], [ 35.462428825000075, 33.315197657000056 ], [ 35.462398615000097, 33.314985664 ], [ 35.462266742999986, 33.31480167400008 ], [ 35.46223923600013, 33.314588878000052 ], [ 35.46225886700006, 33.31441514800008 ], [ 35.462268364000067, 33.314198843000042 ], [ 35.462291936000042, 33.313983605000146 ], [ 35.462330248, 33.313769722000131 ], [ 35.462382615000024, 33.313557752000179 ], [ 35.462449012999969, 33.313348820000158 ], [ 35.462529094000104, 33.31314348300009 ], [ 35.462623194000116, 33.312941747000139 ], [ 35.462730270000066, 33.312745146000111 ], [ 35.463211320000084, 33.311941388000037 ], [ 35.462787936000041, 33.312006499000177 ], [ 35.462226865000105, 33.312074247999988 ], [ 35.461870477000105, 33.312085021000087 ], [ 35.461325041000066, 33.312053240000068 ], [ 35.460670593000089, 33.312017775000072 ], [ 35.460186779000026, 33.311947072000123 ], [ 35.459861951000164, 33.31188195500016 ], [ 35.459208924000052, 33.311691917000076 ], [ 35.458625964000134, 33.31153622800008 ], [ 35.458200254000076, 33.311403858000119 ], [ 35.457610521000049, 33.311266097000043 ], [ 35.456985163000184, 33.311190765 ], [ 35.456598793000182, 33.311146095000026 ], [ 35.45611240900007, 33.311025308000069 ], [ 35.45587996800009, 33.310972058000118 ], [ 35.455691634000175, 33.310897656000179 ], [ 35.455518335000136, 33.310751057000061 ], [ 35.455161051000061, 33.31033480900004 ], [ 35.454976635000094, 33.310069522000049 ], [ 35.454736142000172, 33.309729793000088 ], [ 35.454556246000038, 33.309487687000114 ], [ 35.454390776000025, 33.309291183000028 ], [ 35.454006258000163, 33.308983013000102 ], [ 35.453640986000153, 33.308730101000151 ], [ 35.453287041000067, 33.308586580999986 ], [ 35.452867516000083, 33.30855420000006 ], [ 35.452577513000165, 33.308553871000129 ], [ 35.452221474000112, 33.30856462100013 ], [ 35.451907907000191, 33.308717805000015 ], [ 35.451448190000065, 33.308952395000063 ], [ 35.451092418000144, 33.309176782000065 ], [ 35.450840386000039, 33.309640813000044 ], [ 35.450499846000127, 33.309784127000171 ], [ 35.450119154000049, 33.309966688000088 ], [ 35.449742691000097, 33.310290517000112 ], [ 35.449641033000034, 33.310468731000128 ], [ 35.449600590000159, 33.310626347000039 ], [ 35.449535347000165, 33.310842338000043 ], [ 35.44937625100016, 33.311082358000192 ], [ 35.449208103000103, 33.311276717 ], [ 35.448941474000151, 33.311476853000045 ], [ 35.448683413000026, 33.31160891900015 ], [ 35.448499385000048, 33.311657597000078 ], [ 35.448442380000074, 33.312060577000011 ], [ 35.448408048000033, 33.31227508000012 ], [ 35.448367028000064, 33.312488493000103 ], [ 35.448319979000132, 33.312701246000188 ], [ 35.448229626000057, 33.312914021000154 ], [ 35.448194651000051, 33.313127247000182 ], [ 35.448247010000046, 33.313337902000114 ], [ 35.448419706000152, 33.313556230000074 ], [ 35.446622417000185, 33.314699522000183 ], [ 35.44585617600012, 33.314348668000093 ], [ 35.445645471000034, 33.314224012000068 ], [ 35.445423694000056, 33.314114119000124 ], [ 35.445192169000165, 33.314019854000037 ], [ 35.44495156000005, 33.313941511000053 ], [ 35.44470487100017, 33.313879840000027 ], [ 35.444449739, 33.313850449000142 ], [ 35.444200887000193, 33.313795507000066 ], [ 35.443961652000041, 33.313715775000048 ], [ 35.443735371000059, 33.313612290000094 ], [ 35.443526035000161, 33.313486665000084 ], [ 35.443335952000155, 33.313340770000025 ], [ 35.443123917000094, 33.313125899000056 ], [ 35.440276643000061, 33.314593960000138 ], [ 35.440233254000134, 33.314807191000114 ], [ 35.440192879000051, 33.315020752000066 ], [ 35.440154505000066, 33.315234908000036 ], [ 35.4401191500001, 33.315449112000181 ], [ 35.440086138000026, 33.315663635000078 ], [ 35.440047099000083, 33.31587749900018 ], [ 35.440023469000096, 33.316092733000062 ], [ 35.440014587000064, 33.316309047000175 ], [ 35.440020482000079, 33.31652503100014 ], [ 35.440041491000159, 33.316740690000131 ], [ 35.440077302000191, 33.316954892000069 ], [ 35.440119509, 33.317168350000145 ], [ 35.440145903000086, 33.317383389999975 ], [ 35.440156493000075, 33.317599589000054 ], [ 35.440151306000075, 33.317815820000078 ], [ 35.440130354000132, 33.318031379000047 ], [ 35.439860331000091, 33.320355120000045 ], [ 35.43983570000006, 33.320570058000044 ], [ 35.439765571000066, 33.320777933000102 ], [ 35.439652443999989, 33.320972024000071 ], [ 35.439499159000036, 33.321145468000054 ], [ 35.43931051900006, 33.321293691000164 ], [ 35.439108761000057, 33.321428037000089 ], [ 35.438918498000021, 33.321573697000076 ], [ 35.438740750000079, 33.321730125000045 ], [ 35.438575875000026, 33.321896337000112 ], [ 35.438424890000078, 33.322071790000166 ], [ 35.438289163000093, 33.322255516000041 ], [ 35.438168043000189, 33.322446518000049 ], [ 35.43806356000016, 33.32264412700016 ], [ 35.438745513000185, 33.323386584000048 ], [ 35.438164741000094, 33.324267166000084 ], [ 35.438626473000113, 33.324979644000052 ], [ 35.438778012000114, 33.325153403000115 ], [ 35.438986689999979, 33.325279448000174 ], [ 35.439230963000057, 33.325345319000178 ], [ 35.439545095000085, 33.325335211000038 ], [ 35.439793973000064, 33.325285739000037 ], [ 35.440044803000035, 33.325328743000057 ], [ 35.440250437000032, 33.325455864 ], [ 35.440373796000188, 33.325643831000036 ], [ 35.440378081000119, 33.326515073000166 ], [ 35.44109732700008, 33.326764743000012 ], [ 35.441299012000172, 33.328011137000146 ], [ 35.441324074000136, 33.328226014000052 ], [ 35.441407120000065, 33.328430253000192 ], [ 35.44154437300017, 33.32861280100019 ], [ 35.441727997000044, 33.328763671000047 ], [ 35.441948433000164, 33.328874958000085 ], [ 35.442193401, 33.328940412000179 ], [ 35.442396694000081, 33.328962789000173 ], [ 35.44265346200018, 33.328981078000027 ], [ 35.442911161000097, 33.328987825000127 ], [ 35.443168786000172, 33.328982875000065 ], [ 35.443482858000039, 33.328961058000118 ], [ 35.443737838000175, 33.32898424900003 ], [ 35.443964572000084, 33.329084359000092 ], [ 35.444131478000088, 33.329247362 ], [ 35.444627787000172, 33.329993479 ], [ 35.444738586000028, 33.330188289000148 ], [ 35.444889450000062, 33.330363156000146 ], [ 35.445075810000048, 33.330512232000046 ], [ 35.44529105700019, 33.330630758999973 ], [ 35.445528235000097, 33.330714544000102 ], [ 35.445716061000155, 33.330753159000153 ], [ 35.445962429000133, 33.330816371000083 ], [ 35.446207013000105, 33.330884347 ], [ 35.44644979800006, 33.330957648000151 ], [ 35.446689785999979, 33.331035978000045 ], [ 35.446923329000072, 33.331117306000181 ], [ 35.447406719000071, 33.331331513000066 ], [ 35.447622072000058, 33.331445529000064 ], [ 35.447877069000072, 33.331453350000118 ], [ 35.448101930000121, 33.331352329000026 ], [ 35.448336817000097, 33.33126837500015 ], [ 35.448591286000124, 33.331284783000115 ], [ 35.44882184, 33.331379730000037 ], [ 35.449067508999974, 33.331444334000082 ], [ 35.449322335000147, 33.331474838000133 ], [ 35.44957995700014, 33.33147029700018 ], [ 35.449832987000093, 33.331430874000034 ], [ 35.45007503100004, 33.331357176000154 ], [ 35.451868024000191, 33.331052376000173 ], [ 35.452117974000089, 33.331000359000029 ], [ 35.452372529000058, 33.330967720000046 ], [ 35.452629673000047, 33.330954427000108 ], [ 35.452887378000128, 33.330961153000146 ], [ 35.453142972000137, 33.330987292000088 ], [ 35.453363701, 33.331026131000044 ], [ 35.453383744000178, 33.331241631000069 ], [ 35.452984313000059, 33.333405399000071 ], [ 35.453206911, 33.333435952000173 ], [ 35.453425858000116, 33.333479694000061 ], [ 35.453641154000138, 33.333536625000079 ], [ 35.453850792000082, 33.333606431000192 ], [ 35.454053776000194, 33.333688534000146 ], [ 35.454249102000176, 33.333782776000135 ], [ 35.454436453000142, 33.333888448000152 ], [ 35.454613819000087, 33.334005237000156 ], [ 35.454780885000048, 33.334132293000152 ], [ 35.454938365000089, 33.334267651000175 ], [ 35.455090374000179, 33.334407435000173 ], [ 35.455234187000087, 33.334553431000188 ], [ 35.455368813000177, 33.334704919000103 ], [ 35.455494923000117, 33.334861910000029 ], [ 35.455611180000062, 33.33502410300008 ], [ 35.455718274000048, 33.335190659000148 ], [ 35.455833898000037, 33.33535115 ], [ 35.455969540000069, 33.335502371000189 ], [ 35.456080371999974, 33.335667015000126 ], [ 35.456164437000098, 33.335842511000067 ], [ 35.456220461000157, 33.336025741000128 ], [ 35.456249952000178, 33.336269715000071 ], [ 35.456270608000125, 33.336458027000049 ], [ 35.456319888999985, 33.33664256100019 ], [ 35.45639685000009, 33.336820483000167 ], [ 35.456500225000184, 33.336988390000158 ], [ 35.456630369000095, 33.337175601000069 ], [ 35.45672560700018, 33.337347045000058 ], [ 35.456806626000059, 33.337523761000114 ], [ 35.456872441000087, 33.337704749000181 ], [ 35.456923070000073, 33.33788916300017 ], [ 35.456985509, 33.338070943000105 ], [ 35.457072289000109, 33.338245354000037 ], [ 35.45718244700015, 33.338410408000186 ], [ 35.457314352000139, 33.338563824000119 ], [ 35.457466380000085, 33.338703323000175 ], [ 35.457629343000178, 33.338834256000098 ], [ 35.457798144000037, 33.338959361000036 ], [ 35.457987249000098, 33.339062378000165 ], [ 35.458192016999988, 33.339140555000142 ], [ 35.458408779000024, 33.339192708000098 ], [ 35.458631861000185, 33.339217341000108 ], [ 35.458832733000065, 33.339274459000023 ], [ 35.458929331000093, 33.339445499000135 ], [ 35.459024911000029, 33.339616947000081 ], [ 35.45911947400009, 33.339788942000041 ], [ 35.45921268799998, 33.33996119700015 ], [ 35.45933163400008, 33.34018430500015 ], [ 35.461396105000063, 33.339213248000192 ], [ 35.461596799000176, 33.339127183000073 ], [ 35.461802338000041, 33.33904964900006 ], [ 35.46201239200019, 33.338980499 ], [ 35.462215930000127, 33.338902370000028 ], [ 35.462360799000123, 33.338759485000026 ], [ 35.462442494000072, 33.338588416000164 ], [ 35.462570509000102, 33.338433289000022 ], [ 35.462739818000159, 33.33830868400014 ], [ 35.463867920000041, 33.337223037000115 ], [ 35.4639706910001, 33.337055256000156 ], [ 35.464009728000065, 33.336869568000054 ], [ 35.464046198000062, 33.336663265000141 ], [ 35.464126008999983, 33.336486106000166 ], [ 35.464225793000082, 33.336316728000156 ], [ 35.464566674000139, 33.335661695000056 ], [ 35.464969266000082, 33.33500959800017 ], [ 35.465052735000143, 33.33483390400005 ], [ 35.465122195, 33.334653905000152 ], [ 35.465177634000042, 33.334470305000082 ], [ 35.465243325000074, 33.334248253000169 ], [ 35.465329784000062, 33.334073874000012 ], [ 35.46544486200014, 33.333911074000071 ], [ 35.465585460000057, 33.333763329000192 ], [ 35.465749500000129, 33.333633423000094 ], [ 35.465933231000122, 33.333524116000035 ], [ 35.466567399000041, 33.333057415000042 ], [ 35.466760595000039, 33.332914716000062 ], [ 35.467015592000109, 33.332771007000133 ] ] ] ] } },
{ "type": "Feature", "properties": { "adm3_name": "Froun", "adm3_name1": "فرون", "adm3_pcode": "72276" }, "geometry": { "type": "MultiPolygon", "coordinates": [ [ [ [ 35.438980097000069, 33.307827437000071 ], [ 35.438666548000128, 33.307784563999974 ], [ 35.438479849000089, 33.307578541999987 ], [ 35.43833160000014, 33.307364391000135 ], [ 35.438305444000093, 33.307109193000144 ], [ 35.438328394000052, 33.30686449600006 ], [ 35.438364437000132, 33.306679475000124 ], [ 35.438446780000106, 33.306450515 ], [ 35.438676026000053, 33.306121852999979 ], [ 35.439018660000158, 33.305706208000174 ], [ 35.439276143000029, 33.305360520000136 ], [ 35.43944194200003, 33.305211513000188 ], [ 35.43970827000004, 33.305024922000086 ], [ 35.440038273000027, 33.30487259400013 ], [ 35.440350670000043, 33.304741971000055 ], [ 35.440736962000017, 33.304668743000036 ], [ 35.440929962000041, 33.30463867900005 ], [ 35.441244948000133, 33.304572072000099 ], [ 35.441446411000015, 33.304478868000047 ], [ 35.441641086000061, 33.304299173000175 ], [ 35.441785382000091, 33.304135872000074 ], [ 35.441841287000045, 33.303887890000169 ], [ 35.441801249999969, 33.303472952000106 ], [ 35.441733466000073, 33.302948221000122 ], [ 35.441759608000098, 33.302635509000027 ], [ 35.44192836000019, 33.302309410000134 ], [ 35.442195815000048, 33.301982053000131 ], [ 35.442433058000063, 33.301594888000182 ], [ 35.442555096000035, 33.301226338000049 ], [ 35.442631377, 33.300892717000067 ], [ 35.442629273000193, 33.300597175000121 ], [ 35.442533085000036, 33.300321424000117 ], [ 35.442380649000086, 33.300084524000056 ], [ 35.442234965000068, 33.299920727000085 ], [ 35.442083514000103, 33.299774736000188 ], [ 35.442004543000053, 33.299599452000109 ], [ 35.442232733000083, 33.299061925000103 ], [ 35.4423748910001, 33.298843773000158 ], [ 35.44246967100014, 33.298688004000155 ], [ 35.442585604000044, 33.298441957000136 ], [ 35.442627298000104, 33.298138933000132 ], [ 35.442601749000062, 33.297721406000107 ], [ 35.442573785000036, 33.297546505000128 ], [ 35.442506281000135, 33.297248943 ], [ 35.442418911, 33.297014199000159 ], [ 35.442162908000057, 33.29654680800013 ], [ 35.441967585000157, 33.296172256000034 ], [ 35.441749086000129, 33.295828621000112 ], [ 35.441463574000124, 33.295510137000065 ], [ 35.441211914000064, 33.2952835050001 ], [ 35.440883481000185, 33.295068340000171 ], [ 35.44046773600013, 33.294840660000148 ], [ 35.440114611000126, 33.294679075000033 ], [ 35.439648726000087, 33.294472583000186 ], [ 35.439094468, 33.294285968999986 ], [ 35.438603346000093, 33.294037782000146 ], [ 35.438219088000096, 33.293843146000029 ], [ 35.438034890000097, 33.293691559000024 ], [ 35.437810508000041, 33.293356842000151 ], [ 35.437707261000071, 33.293112541000085 ], [ 35.437520901000141, 33.292788433000112 ], [ 35.43737259400001, 33.292593022000176 ], [ 35.437101804000179, 33.292292658000179 ], [ 35.436898948000078, 33.292299589000152 ], [ 35.436633838000034, 33.292358801000091 ], [ 35.43636913600011, 33.292399839999973 ], [ 35.436109491000082, 33.292454769000187 ], [ 35.435905688000162, 33.292488881000168 ], [ 35.43559641000013, 33.292542175000165 ], [ 35.435388427000078, 33.292553250000083 ], [ 35.435158073000025, 33.292454758000076 ], [ 35.435091138000075, 33.292252603000179 ], [ 35.435072217000027, 33.292079252000121 ], [ 35.435175270000116, 33.291869225000084 ], [ 35.435324283999989, 33.291615115000184 ], [ 35.43521236800018, 33.291443390000097 ], [ 35.43503668, 33.291346610000062 ], [ 35.434771310000087, 33.291283212000167 ], [ 35.434333853000055, 33.291291208000132 ], [ 35.433908714000154, 33.291258812000081 ], [ 35.433489485000166, 33.291217349000135 ], [ 35.432936667999968, 33.291117253000039 ], [ 35.432470404000128, 33.29103346800008 ], [ 35.432248762000086, 33.290980625000088 ], [ 35.431992207000121, 33.290853807000076 ], [ 35.431819098000062, 33.290598104000139 ], [ 35.431712431000051, 33.290312877000076 ], [ 35.431601463999982, 33.289890890000038 ], [ 35.43156835100018, 33.289558356999976 ], [ 35.431560584000181, 33.289262724000139 ], [ 35.431553900000154, 33.288844508000182 ], [ 35.431596171000024, 33.288532338000095 ], [ 35.431664860000126, 33.28823918900008 ], [ 35.431736241000067, 33.287900988000104 ], [ 35.431967058000055, 33.287427078000121 ], [ 35.432149471000116, 33.287269469000137 ], [ 35.432541373000049, 33.28707812600004 ], [ 35.432944335000172, 33.286887240000055 ], [ 35.433201168000039, 33.286777737000136 ], [ 35.433470450000129, 33.286636867000027 ], [ 35.433633450000116, 33.286551380000162 ], [ 35.433574355000076, 33.286299462999978 ], [ 35.433339506000095, 33.286177925000061 ], [ 35.433098105000113, 33.286079111000049 ], [ 35.432934241000055, 33.285964477000164 ], [ 35.43284284900011, 33.285820696000087 ], [ 35.432955788000129, 33.285633517000122 ], [ 35.43321031000005, 33.285119679000104 ], [ 35.433359731999985, 33.284742837000181 ], [ 35.433494229000189, 33.284447631999967 ], [ 35.433552402000146, 33.284263387000124 ], [ 35.433535415000051, 33.284049060000029 ], [ 35.43340688100011, 33.283885665000128 ], [ 35.433152269000175, 33.283718156000191 ], [ 35.432745425000064, 33.283649970000056 ], [ 35.432238611000059, 33.283610352000153 ], [ 35.431812022000031, 33.283614282000144 ], [ 35.431378349000113, 33.283649665000155 ], [ 35.431117730000153, 33.283629738000172 ], [ 35.43092905400016, 33.284020750000025 ], [ 35.430700300000069, 33.285370788000193 ], [ 35.430577941000138, 33.285558803000185 ], [ 35.43036618900004, 33.285678176000033 ], [ 35.430112640000118, 33.285701622000033 ], [ 35.429894924000052, 33.285713378000082 ], [ 35.429637526000022, 33.285714074000168 ], [ 35.429380787000014, 33.285700406000103 ], [ 35.429125036000073, 33.285672661000035 ], [ 35.428914359000146, 33.285655075000136 ], [ 35.428656959000193, 33.285640972000124 ], [ 35.428400341000099, 33.285621949000074 ], [ 35.428144508000173, 33.285597864000124 ], [ 35.42788945500007, 33.285569001000113 ], [ 35.427631817000076, 33.285565461000033 ], [ 35.427374544000031, 33.285575455000128 ], [ 35.427118643000085, 33.285598999000115 ], [ 35.426865127000099, 33.285635826000089 ], [ 35.426614039000071, 33.285683965000032 ], [ 35.426362055000027, 33.285652893000133 ], [ 35.426168189000123, 33.285515083000121 ], [ 35.426089220999984, 33.285312026000099 ], [ 35.426165314000173, 33.28452859700019 ], [ 35.425872345000187, 33.284648218000086 ], [ 35.42563811500014, 33.284737491000101 ], [ 35.42539078700014, 33.284797524000169 ], [ 35.425135747000184, 33.284827559000064 ], [ 35.424878389000185, 33.284826554000063 ], [ 35.424622100000192, 33.284837685000184 ], [ 35.424376709000057, 33.284900989000107 ], [ 35.424156405000133, 33.285012465000079 ], [ 35.423341363000191, 33.285425175000114 ], [ 35.422351522000099, 33.285821279000061 ], [ 35.422112451000146, 33.285901730000035 ], [ 35.421881427000187, 33.285997247000068 ], [ 35.420953445000123, 33.286461829000132 ], [ 35.420723730000077, 33.286558633000141 ], [ 35.420474550000051, 33.286611159000017 ], [ 35.420217715000035, 33.28661649300011 ], [ 35.419956667000122, 33.286615138000116 ], [ 35.419701340000188, 33.286642761000167 ], [ 35.419453080999972, 33.286698962000116 ], [ 35.41921561200013, 33.286782534999986 ], [ 35.418984034000175, 33.286783902000025 ], [ 35.418904449000081, 33.286579140000129 ], [ 35.418752684000026, 33.286405353000077 ], [ 35.418544114000042, 33.286280119000025 ], [ 35.418431391000183, 33.286086522000062 ], [ 35.418390241000168, 33.285873920000029 ], [ 35.418424284000025, 33.28566026600015 ], [ 35.418530747000091, 33.285464117000174 ], [ 35.418700525000077, 33.285302381000122 ], [ 35.419515113000159, 33.284407465000129 ], [ 35.419330684999977, 33.28423879200011 ], [ 35.419172139000182, 33.284068280000042 ], [ 35.419030262000092, 33.283887745000129 ], [ 35.418905694999978, 33.283698611000091 ], [ 35.418799090000164, 33.283501730000069 ], [ 35.417280815000026, 33.284204713000065 ], [ 35.417057242999988, 33.284311896000133 ], [ 35.416825244000108, 33.284405978999985 ], [ 35.416586497000139, 33.284486847000153 ], [ 35.416341687000113, 33.284553949000156 ], [ 35.416091829000038, 33.284606877000101 ], [ 35.415840227000047, 33.284647939000138 ], [ 35.415594517000102, 33.284592142000065 ], [ 35.415385189000062, 33.284530164000046 ], [ 35.41513812300019, 33.284578344000124 ], [ 35.414833606000116, 33.284703389000128 ], [ 35.414771068000107, 33.284900662000155 ], [ 35.41474872200007, 33.285116052000035 ], [ 35.4146809020001, 33.285324231000118 ], [ 35.414568430000031, 33.285518589000048 ], [ 35.414406602000156, 33.28568453400004 ], [ 35.414270926000142, 33.285866259000045 ], [ 35.414241250000146, 33.286079277000056 ], [ 35.414214562999973, 33.286249362000035 ], [ 35.41402827200011, 33.286398991000056 ], [ 35.413832458000059, 33.286539448000042 ], [ 35.413627791000124, 33.286670743000172 ], [ 35.413412396000126, 33.286786786999983 ], [ 35.413263119000135, 33.286961388000122 ], [ 35.413194629000145, 33.287169273000188 ], [ 35.413099457000101, 33.287369967000132 ], [ 35.412960753000164, 33.287551783000083 ], [ 35.411941243000172, 33.288289622000093 ], [ 35.411757586000192, 33.288441121000119 ], [ 35.411592723000126, 33.288607296000066 ], [ 35.411448703000133, 33.288786487999971 ], [ 35.411326584000051, 33.288976601000172 ], [ 35.411227069000063, 33.289176097000166 ], [ 35.411152215000072, 33.289383175000069 ], [ 35.410949011000184, 33.29086408500001 ], [ 35.410626367000134, 33.291709780000076 ], [ 35.410541842000157, 33.29191402500004 ], [ 35.410468320000064, 33.292121406000035 ], [ 35.410406484000134, 33.29233137 ], [ 35.410356341000124, 33.292543637000108 ], [ 35.410317907000149, 33.29275750100004 ], [ 35.410291194000024, 33.292972539000061 ], [ 35.410267942000189, 33.293315448000101 ], [ 35.410500629000182, 33.293369356000085 ], [ 35.410757250000188, 33.293389121000075 ], [ 35.411014176000151, 33.293395504000159 ], [ 35.411271752000118, 33.29338808600005 ], [ 35.411528731000146, 33.293377417000158 ], [ 35.411784983000075, 33.293354475 ], [ 35.412037619000159, 33.293313438000098 ], [ 35.412285631000088, 33.293254428000182 ], [ 35.412526319000108, 33.29317796700019 ], [ 35.41275866400008, 33.293084744000168 ], [ 35.412980974000163, 33.292975293000097 ], [ 35.413190880000116, 33.292850424000164 ], [ 35.413388028999975, 33.292710975999967 ], [ 35.413555822000092, 33.292549074000078 ], [ 35.413695875000087, 33.292367278000143 ], [ 35.413843204999978, 33.292190108000057 ], [ 35.413987795000082, 33.292030087000057 ], [ 35.414228426000136, 33.292103562000193 ], [ 35.414414695, 33.292250570000078 ], [ 35.414517279000165, 33.29244725000018 ], [ 35.414519436999967, 33.292662328000063 ], [ 35.414463020000028, 33.292870551000135 ], [ 35.414452403000155, 33.293086552000148 ], [ 35.414431057000115, 33.293302100000062 ], [ 35.414398324, 33.293516620000048 ], [ 35.414354882000168, 33.293729841000186 ], [ 35.414300405000176, 33.293941194000183 ], [ 35.414235236000025, 33.294150543000171 ], [ 35.414159388000144, 33.294357184000148 ], [ 35.414043612000171, 33.29484375800007 ], [ 35.414001858000063, 33.295056443000135 ], [ 35.413888390000068, 33.295249656000067 ], [ 35.413712645000032, 33.295406924000133 ], [ 35.41201979900012, 33.296661006000136 ], [ 35.413295814000094, 33.297678642000164 ], [ 35.414416838000136, 33.296525009000163 ], [ 35.41458297600019, 33.296362233000025 ], [ 35.414817806000087, 33.296278064000091 ], [ 35.415072591000126, 33.296290462000059 ], [ 35.415566333000129, 33.29650961700014 ], [ 35.415796017000105, 33.296592777000114 ], [ 35.416025153000078, 33.296508091000192 ], [ 35.41644529000007, 33.296392222000122 ], [ 35.41642897800017, 33.296607991000087 ], [ 35.416389223000181, 33.296821555000179 ], [ 35.41636620700001, 33.297036935000051 ], [ 35.416379763000066, 33.297252761000152 ], [ 35.416429316000176, 33.29746479500011 ], [ 35.416502717000128, 33.29764649100008 ], [ 35.416562719000126, 33.297856578000108 ], [ 35.416574602000139, 33.298072236 ], [ 35.416522845000031, 33.298282224000161 ], [ 35.416467384000157, 33.298492717000101 ], [ 35.416479941000034, 33.298708245000171 ], [ 35.416559525000025, 33.298913291000076 ], [ 35.416739217000156, 33.299129101000176 ], [ 35.41771944400017, 33.30005162100008 ], [ 35.417944461000047, 33.300000828000066 ], [ 35.418176957000128, 33.300093752000123 ], [ 35.418392779000044, 33.300211492000074 ], [ 35.418588276000094, 33.300352300000043 ], [ 35.41875981600009, 33.300513581000132 ], [ 35.418904445000067, 33.300692328000082 ], [ 35.419038565000164, 33.300875697000095 ], [ 35.419089240000176, 33.301083098000106 ], [ 35.418965566000054, 33.301267699000164 ], [ 35.418753688000152, 33.301390151000192 ], [ 35.418578594000053, 33.301548140000193 ], [ 35.418447506000177, 33.301734031000024 ], [ 35.418340701000147, 33.301929469000072 ], [ 35.418322399000033, 33.302144362000149 ], [ 35.418394578000061, 33.302350698000168 ], [ 35.418489817000079, 33.302546553000127 ], [ 35.418716620000055, 33.30263924400009 ], [ 35.419187874000158, 33.302579282000067 ], [ 35.419443497000088, 33.302570405000154 ], [ 35.419681321000041, 33.302650728000117 ], [ 35.41989404900005, 33.302772081000114 ], [ 35.420081669000126, 33.302920229000108 ], [ 35.420238904000087, 33.303091003000077 ], [ 35.42042310000005, 33.303242195000109 ], [ 35.420589532000122, 33.303407056000026 ], [ 35.42073756700006, 33.303584022000052 ], [ 35.420865896000123, 33.303771525000059 ], [ 35.42100849000019, 33.303951646000144 ], [ 35.421165710000025, 33.304123264000111 ], [ 35.421335558000067, 33.304285640000046 ], [ 35.421518046000074, 33.304438355000173 ], [ 35.422275968000065, 33.304925928000102 ], [ 35.422521975000052, 33.304986225 ], [ 35.422777144000122, 33.30496803300008 ], [ 35.423007521000102, 33.304873630000031 ], [ 35.423198469999988, 33.304712082000151 ], [ 35.423367305000056, 33.304548773000079 ], [ 35.423561368000037, 33.30433851500004 ], [ 35.42427518500017, 33.304684169000041 ], [ 35.424642045000155, 33.304328137000084 ], [ 35.424276264000184, 33.304057935000117 ], [ 35.424078288000146, 33.303922029000091 ], [ 35.423960765000118, 33.303731320000168 ], [ 35.423942456000077, 33.3035169690001 ], [ 35.42402692800016, 33.303314123000064 ], [ 35.42420230700003, 33.303158104000033 ], [ 35.42442721000009, 33.303053183000145 ], [ 35.424673611000117, 33.302992008000103 ], [ 35.424930034000113, 33.302977496000153 ], [ 35.425340601000073, 33.303226285000051 ], [ 35.425516971000093, 33.303382560000102 ], [ 35.425745697000025, 33.303479636000134 ], [ 35.426014624000118, 33.303505907000101 ], [ 35.426067272000068, 33.304666241000177 ], [ 35.426229725000098, 33.30647797000006 ], [ 35.42630445900005, 33.30732961800004 ], [ 35.426338217000193, 33.307543932000158 ], [ 35.426392847000102, 33.307755480000083 ], [ 35.426467047000187, 33.307962547000045 ], [ 35.426560845000097, 33.308163868000122 ], [ 35.427036846000135, 33.308251494000103 ], [ 35.42728370400016, 33.308289529000149 ], [ 35.4274302070001, 33.308460967000087 ], [ 35.42785879000013, 33.310068652000155 ], [ 35.427932994000059, 33.310275859000171 ], [ 35.4280008610001, 33.310629805000133 ], [ 35.428087301000119, 33.310830303000046 ], [ 35.428291203000128, 33.31095741900009 ], [ 35.428545505000045, 33.310978377000026 ], [ 35.42879122, 33.310918732000175 ], [ 35.428987673, 33.310781078000105 ], [ 35.429101444000082, 33.310588700000039 ], [ 35.429937934, 33.310915978000082 ], [ 35.429971633000093, 33.311163125 ], [ 35.42998651400012, 33.311173085000121 ], [ 35.429924115000063, 33.310546546000069 ], [ 35.43008696600009, 33.30978534500008 ], [ 35.430556297000123, 33.308978568000043 ], [ 35.431139084000108, 33.308558307000169 ], [ 35.431487753000113, 33.308532282000044 ], [ 35.432050459000095, 33.308585754000035 ], [ 35.432558773999972, 33.308893145000127 ], [ 35.432871129000148, 33.309212640000055 ], [ 35.432892504000051, 33.309724099000164 ], [ 35.433074708000049, 33.310039836000101 ], [ 35.433418568000093, 33.310123224000051 ], [ 35.434443115000192, 33.310044646000108 ], [ 35.435083509000094, 33.309808618000147 ], [ 35.43635142800008, 33.309117073000039 ], [ 35.437506921000022, 33.308513360000063 ], [ 35.437906973999986, 33.308306625000114 ], [ 35.438747036000052, 33.307967062000159 ], [ 35.438980097000069, 33.307827437000071 ] ] ] ] } }
]
}
