{
"type": "FeatureCollection",
"name": "Yellow_line",
"crs": { "type": "name", "properties": { "name": "urn:ogc:def:crs:OGC:1.3:CRS84" } },
"features": [
{ "type": "Feature", "properties": { "Shape_Leng": 1.4942611784399999 }, "geometry": { "type": "MultiLineString", "coordinates": [ [ [ 35.146741601000031, 33.181066501000032 ], [ 35.173093488000063, 33.171228463000034 ], [ 35.18785054500006, 33.166133765000041 ], [ 35.19224252600003, 33.16437697300006 ], [ 35.196107469000026, 33.161741784000071 ], [ 35.200675130000036, 33.159282274000077 ], [ 35.205242790000057, 33.159457954000061 ], [ 35.209283413000037, 33.155768690000059 ], [ 35.212269960000071, 33.151552388000027 ], [ 35.215432186000044, 33.146633369000028 ], [ 35.218945771000051, 33.144876576000058 ], [ 35.221756639000034, 33.145052255000053 ], [ 35.225445904000026, 33.144349538000029 ], [ 35.229662206000057, 33.143119784000078 ], [ 35.233351470000059, 33.145403614000031 ], [ 35.237567772000034, 33.148214482000071 ], [ 35.242662470000027, 33.149971274000052 ], [ 35.24424358300007, 33.152782142000035 ], [ 35.245121979000032, 33.157174124000051 ], [ 35.245473338000068, 33.160863388000053 ], [ 35.248811243000034, 33.162444501000039 ], [ 35.251270753000028, 33.162444501000039 ], [ 35.253905942000074, 33.160687708000069 ], [ 35.256014093000033, 33.158930916000031 ], [ 35.258122244000049, 33.158228199000064 ], [ 35.260406074000059, 33.156471407000026 ], [ 35.262514225000075, 33.155065973000035 ], [ 35.263568300000031, 33.156295727000042 ], [ 35.267081885000039, 33.154890293000051 ], [ 35.267433244000074, 33.152430784000046 ], [ 35.26848731900003, 33.15032263300003 ], [ 35.269717074000027, 33.148038803000077 ], [ 35.270068432000073, 33.14628201000005 ], [ 35.271649546000049, 33.145754972000077 ], [ 35.274460414000032, 33.145754972000077 ], [ 35.275163131000056, 33.143471142000067 ], [ 35.276217206000069, 33.141187312000056 ], [ 35.278676716000064, 33.140308916000038 ], [ 35.282717338000054, 33.138552123000068 ], [ 35.286406602000056, 33.140835953000078 ], [ 35.290271546000042, 33.141362991000051 ], [ 35.293258093000077, 33.141538670000045 ], [ 35.295366244000036, 33.140484595000032 ], [ 35.297298716000057, 33.139254840000035 ], [ 35.299231188000078, 33.138376444000073 ], [ 35.300636621000024, 33.136092614000063 ], [ 35.301339338000048, 33.13503853800006 ], [ 35.305906999000058, 33.135389897000039 ], [ 35.308366508000063, 33.136971010000025 ], [ 35.311528735000024, 33.137673727000049 ], [ 35.313133673000038, 33.136288149000052 ], [ 35.31331788600005, 33.135136818000035 ], [ 35.31340999300005, 33.133524953000062 ], [ 35.314192898000044, 33.132281515000045 ], [ 35.315574496000067, 33.13200519600008 ], [ 35.317002147000039, 33.132603888000062 ], [ 35.318844277000039, 33.132649941000068 ], [ 35.320179822000057, 33.132511782000051 ], [ 35.320179822000057, 33.131406503000051 ], [ 35.320456141000079, 33.130577545000051 ], [ 35.321146940000062, 33.129886746000068 ], [ 35.322758804000046, 33.130209119000028 ], [ 35.323449603000029, 33.131406503000051 ], [ 35.32372592300004, 33.13324863400004 ], [ 35.323265390000074, 33.13486049800008 ], [ 35.32464698800004, 33.136840788000029 ], [ 35.328515462000041, 33.138636865000024 ], [ 35.329436527000041, 33.138544759000069 ], [ 35.330357592000041, 33.137485534000064 ], [ 35.331554977000053, 33.136334202000057 ], [ 35.337357688000054, 33.138268439000058 ], [ 35.343666985000027, 33.142965872000048 ], [ 35.343759091000038, 33.145038269000054 ], [ 35.34596964800005, 33.143840884000042 ], [ 35.348502577000033, 33.143426404000024 ], [ 35.35034470800008, 33.144117203000064 ], [ 35.350805240000057, 33.145314588000076 ], [ 35.352324998000029, 33.145683014000042 ], [ 35.353660542000057, 33.146696186000042 ], [ 35.356009259000075, 33.148308050000026 ], [ 35.356654004000063, 33.149321222000026 ], [ 35.356561898000052, 33.150380447000032 ], [ 35.35904877400003, 33.15079492600006 ], [ 35.36066063800007, 33.151900204000071 ], [ 35.361029064000036, 33.153005483000072 ], [ 35.361627756000075, 33.153972601000078 ], [ 35.362456715000064, 33.154248921000033 ], [ 35.365910710000037, 33.152821270000061 ], [ 35.371575261000032, 33.15180809800006 ], [ 35.373325285000078, 33.151163352000026 ], [ 35.375029255000072, 33.151209405000031 ], [ 35.376042427000073, 33.151762045000055 ], [ 35.377331918000039, 33.154755507000061 ], [ 35.378667463000056, 33.155676572000061 ], [ 35.389029447000041, 33.159637152000073 ], [ 35.392943974000048, 33.159452939000062 ], [ 35.39354266600003, 33.158900300000028 ], [ 35.392990027000053, 33.157841075000078 ], [ 35.392115015000059, 33.156735797000067 ], [ 35.389950512000041, 33.154064708000078 ], [ 35.386035985000035, 33.150058074000071 ], [ 35.38382542800008, 33.147202772000071 ], [ 35.382996469000034, 33.145775121000042 ], [ 35.383042523000029, 33.144900109000048 ], [ 35.384285961000046, 33.144301416000076 ], [ 35.38700310300004, 33.143840884000042 ], [ 35.389305766000064, 33.144117203000064 ], [ 35.39068736400003, 33.143932990000053 ], [ 35.392434509000054, 33.142157061000034 ], [ 35.394089549000057, 33.141005730000074 ], [ 35.39538479600003, 33.140861813000072 ], [ 35.397687460000043, 33.141581396000049 ], [ 35.399198582000054, 33.142804685000044 ], [ 35.399198582000054, 33.143524268000078 ], [ 35.398622916000079, 33.145179307000035 ], [ 35.398910749000038, 33.14676238800007 ], [ 35.400925579000045, 33.14942484200003 ], [ 35.404379574000075, 33.153814293000039 ], [ 35.405530905000035, 33.154605833000062 ], [ 35.407401819000029, 33.155253457000072 ], [ 35.409200775000045, 33.155181499000037 ], [ 35.410999730000071, 33.154821708000043 ], [ 35.412870644000066, 33.154318001000036 ], [ 35.413662184000032, 33.153958209000052 ], [ 35.413950017000047, 33.152519045000076 ], [ 35.414021975000026, 33.151511630000073 ], [ 35.415389182000069, 33.151223797000057 ], [ 35.416756388000067, 33.151151839000079 ], [ 35.419202967000047, 33.151799463000032 ], [ 35.424527875000024, 33.154102126000055 ], [ 35.428197745000034, 33.155613249000055 ], [ 35.429636909000067, 33.155613249000055 ], [ 35.436976647000051, 33.154246042000068 ], [ 35.441653932000065, 33.154102126000055 ], [ 35.44503596800007, 33.153382544000067 ], [ 35.446331216000033, 33.153742335000061 ], [ 35.449425420000068, 33.155397374000074 ], [ 35.45511011900004, 33.156692622000037 ], [ 35.458132364000051, 33.15834766100005 ], [ 35.459859361000042, 33.159139201000073 ], [ 35.461154609000062, 33.15899528500006 ], [ 35.462809648000075, 33.15834766100005 ], [ 35.46360118900003, 33.158707452000044 ], [ 35.464464687000032, 33.159714867000048 ], [ 35.465328186000079, 33.160002700000064 ], [ 35.466335601000026, 33.159355076000054 ], [ 35.466767350000055, 33.158275703000072 ], [ 35.466983225000035, 33.156764580000072 ], [ 35.467199100000073, 33.155613249000055 ], [ 35.467846724000026, 33.154749750000065 ], [ 35.468566306000071, 33.154030168000077 ], [ 35.46885413900003, 33.153310586000032 ], [ 35.469285888000059, 33.152519045000076 ], [ 35.470221345000027, 33.152015338000069 ], [ 35.470653094000056, 33.151223797000057 ], [ 35.470725053000024, 33.150288340000031 ], [ 35.471372677000033, 33.150144424000075 ], [ 35.473963172000026, 33.150935964000041 ], [ 35.47561821100004, 33.150864006000063 ], [ 35.477561083000069, 33.149928549000037 ], [ 35.480295496000053, 33.151439672000038 ], [ 35.48144682700007, 33.152734920000057 ], [ 35.482526201000042, 33.155397374000074 ], [ 35.484037323000052, 33.15618891400004 ], [ 35.485980195000025, 33.15834766100005 ], [ 35.483965365000074, 33.160506407000071 ], [ 35.484541031000049, 33.162161447000074 ], [ 35.484253198000033, 33.162593196000046 ], [ 35.483029908000049, 33.162665154000024 ], [ 35.482454242000074, 33.163168862000077 ], [ 35.482526201000042, 33.163888444000065 ], [ 35.483245783000029, 33.165471525000044 ], [ 35.483821449000061, 33.16662285600006 ], [ 35.482814033000068, 33.168205937000039 ], [ 35.483029908000049, 33.168997477000062 ], [ 35.483893407000039, 33.169213352000043 ], [ 35.484972780000078, 33.171300140000028 ], [ 35.484972780000078, 33.172379514000056 ], [ 35.483893407000039, 33.173458887000038 ], [ 35.482526201000042, 33.176409174000071 ], [ 35.484541031000049, 33.177776380000068 ], [ 35.484325156000068, 33.179935127000078 ], [ 35.48475690500004, 33.181086458000038 ], [ 35.484900822000043, 33.181949957000029 ], [ 35.48410928100003, 33.182597581000039 ], [ 35.484397114000046, 33.183748912000055 ], [ 35.484181240000055, 33.184756328000049 ], [ 35.482598159000077, 33.186915074000069 ], [ 35.48144682700007, 33.187922489000073 ], [ 35.481302911000057, 33.189145779000057 ], [ 35.481806618000064, 33.189793403000067 ], [ 35.482022493000045, 33.190441027000077 ], [ 35.481662702000051, 33.191664317000061 ], [ 35.483101866000027, 33.192527815000062 ], [ 35.48295795000007, 33.196197684000026 ], [ 35.483389699000043, 33.199507763000042 ], [ 35.483101866000027, 33.200587136000024 ], [ 35.482885992000035, 33.201954342000079 ], [ 35.482885992000035, 33.203321548000076 ], [ 35.482526201000042, 33.204832671000077 ], [ 35.482382284000039, 33.206559668000068 ], [ 35.482885992000035, 33.208142749000046 ], [ 35.483893407000039, 33.208862331000034 ], [ 35.484541031000049, 33.210517370000048 ], [ 35.48540452900005, 33.212172409000061 ], [ 35.485548446000053, 33.214115281000034 ], [ 35.485764320000044, 33.215482487000031 ], [ 35.482166409000058, 33.218936482000061 ], [ 35.480439412000067, 33.218648649000045 ], [ 35.479575914000065, 33.218432774000064 ], [ 35.478424582000059, 33.220015855000042 ], [ 35.477848916000028, 33.221239145000027 ], [ 35.477201292000075, 33.22354180800005 ], [ 35.47648171000003, 33.228938674000062 ], [ 35.47446688000008, 33.230521755000041 ], [ 35.473459465000076, 33.231241337000029 ], [ 35.472883799000044, 33.23246462700007 ], [ 35.472667924000064, 33.233544001000041 ], [ 35.472595966000029, 33.235414914000046 ], [ 35.47317163200006, 33.236494288000074 ], [ 35.474107089000029, 33.23793345200005 ], [ 35.47597800300008, 33.240595906000067 ], [ 35.476697585000068, 33.241963112000064 ], [ 35.476769543000046, 33.243905984000037 ], [ 35.476913459000059, 33.24556102300005 ], [ 35.477345209000077, 33.247288020000042 ], [ 35.478136749000043, 33.248223477000067 ], [ 35.478496540000037, 33.248871101000077 ], [ 35.478568499000062, 33.24951872500003 ], [ 35.477345209000077, 33.251317681000046 ], [ 35.476985418000027, 33.252037263000034 ], [ 35.476985418000027, 33.252684887000044 ], [ 35.477345209000077, 33.253404469000031 ], [ 35.477776958000049, 33.254339926000057 ], [ 35.47597800300008, 33.255779090000033 ], [ 35.473963172000026, 33.256786506000026 ], [ 35.472236175000035, 33.256714547000058 ], [ 35.470005470000046, 33.256282798000029 ], [ 35.468998055000043, 33.255779090000033 ], [ 35.464032938000059, 33.25513146600008 ], [ 35.462449857000024, 33.254555801000038 ], [ 35.458851946000038, 33.25513146600008 ], [ 35.455038161000061, 33.254627759000073 ], [ 35.454318578000027, 33.255419299000039 ], [ 35.453167247000067, 33.256210840000051 ], [ 35.452231790000042, 33.257865879000065 ], [ 35.450792626000066, 33.259233085000062 ], [ 35.449497378000046, 33.260096584000053 ], [ 35.447770380000065, 33.261247915000069 ], [ 35.445251843000051, 33.26211141400006 ], [ 35.442013723000059, 33.263406662000079 ], [ 35.440286726000068, 33.264126244000067 ], [ 35.440286726000068, 33.265493450000065 ], [ 35.440214767000043, 33.267220447000057 ], [ 35.440358684000046, 33.268011988000069 ], [ 35.443021138000063, 33.269810943000039 ], [ 35.442661347000069, 33.271106191000058 ], [ 35.441797848000078, 33.272905147000074 ], [ 35.441438057000028, 33.27434431100005 ], [ 35.441294141000071, 33.275711517000047 ], [ 35.441725890000043, 33.277654389000077 ], [ 35.442301556000075, 33.279237470000055 ], [ 35.443093096000041, 33.280172927000024 ], [ 35.444748135000054, 33.281684050000024 ], [ 35.445179885000073, 33.282475590000047 ], [ 35.44503596800007, 33.283698880000031 ], [ 35.444460302000039, 33.284706295000035 ], [ 35.442157639000072, 33.285569793000036 ], [ 35.440502600000059, 33.286361334000048 ], [ 35.437336439000035, 33.286865041000055 ], [ 35.435105734000047, 33.287584624000033 ], [ 35.434098319000043, 33.288232248000043 ], [ 35.433378737000055, 33.289815328000032 ], [ 35.433378737000055, 33.291470367000045 ], [ 35.433594611000046, 33.293629114000055 ], [ 35.433666569000025, 33.295859819000043 ], [ 35.43524965000006, 33.297586816000035 ], [ 35.43611314900005, 33.299025980000067 ], [ 35.436041191000072, 33.300393187000054 ], [ 35.435465525000041, 33.301472560000036 ], [ 35.434242235000056, 33.302264100000059 ], [ 35.430284533000076, 33.304494805000047 ], [ 35.429564951000032, 33.305502220000051 ], [ 35.429061243000035, 33.306653552000057 ], [ 35.428701452000041, 33.309100131000037 ], [ 35.428701452000041, 33.31075517000005 ], [ 35.429492993000054, 33.312050418000069 ], [ 35.430428449000033, 33.313273708000054 ], [ 35.43129194800008, 33.314281123000058 ], [ 35.431651739000074, 33.317375327000036 ], [ 35.432011530000068, 33.319318198000076 ], [ 35.431507823000061, 33.320613446000038 ], [ 35.432659154000078, 33.324067441000068 ], [ 35.436257065000063, 33.326801853000063 ], [ 35.442517430000066, 33.328672767000057 ], [ 35.445611634000045, 33.328169059000061 ], [ 35.450216960000034, 33.327017728000044 ], [ 35.456045576000065, 33.325866396000038 ], [ 35.46554406100006, 33.324643107000043 ], [ 35.472092259000078, 33.325434647000066 ], [ 35.475906044000055, 33.326585979000072 ], [ 35.48360557400008, 33.32601031300004 ], [ 35.490729438000074, 33.321908694000058 ], [ 35.491305103000059, 33.319893864000051 ], [ 35.49367972500005, 33.318742533000034 ], [ 35.495694555000057, 33.31903036600005 ], [ 35.496989803000076, 33.319606031000035 ], [ 35.497781343000042, 33.320109739000031 ], [ 35.500155964000044, 33.319965822000029 ], [ 35.50195492000006, 33.320181697000066 ], [ 35.503609959000073, 33.320901279000054 ], [ 35.504401499000039, 33.321045196000057 ], [ 35.506272413000033, 33.320469530000025 ], [ 35.507567661000053, 33.320325614000069 ], [ 35.51431739800006, 33.357601377000037 ], [ 35.519373868000059, 33.364349146000052 ], [ 35.524756400000058, 33.367009633000066 ], [ 35.531783569000027, 33.367098456000065 ], [ 35.536471816000073, 33.360574994000046 ], [ 35.541128301000072, 33.351200468000059 ], [ 35.541473193000058, 33.343335097000079 ], [ 35.540951778000078, 33.339668883000058 ], [ 35.540596484000048, 33.338962792000075 ], [ 35.543115022000052, 33.338962792000075 ], [ 35.544410270000071, 33.338746918000027 ], [ 35.545057894000024, 33.337883419000036 ], [ 35.547216640000045, 33.333925717000056 ], [ 35.548583846000042, 33.330831514000067 ], [ 35.549159512000074, 33.329104516000029 ], [ 35.549303429000076, 33.326945770000066 ], [ 35.548583846000042, 33.324715065000078 ], [ 35.546497058000057, 33.315504413000042 ], [ 35.540092776000051, 33.310323421000078 ], [ 35.539301236000028, 33.308524466000051 ], [ 35.539517111000066, 33.307157259000064 ], [ 35.542827189000036, 33.306293761000063 ], [ 35.543618729000059, 33.305214387000035 ], [ 35.542251523000061, 33.299097939000035 ], [ 35.545489643000053, 33.297442900000078 ], [ 35.55273634200006, 33.296663446000025 ], [ 35.559236474000045, 33.297190484000055 ], [ 35.560993266000025, 33.299298635000071 ], [ 35.559412153000039, 33.306150125000045 ], [ 35.560178114000053, 33.309684792000041 ], [ 35.56568741600006, 33.311034008000036 ], [ 35.568160979000027, 33.312270790000071 ], [ 35.569285327000046, 33.315868701000056 ], [ 35.573332977000064, 33.31688061400007 ], [ 35.590310619000036, 33.315643832000035 ], [ 35.593458791000046, 33.315643832000035 ], [ 35.594583138000075, 33.317555222000067 ], [ 35.59480800800003, 33.321940176000055 ], [ 35.592222009000068, 33.329923041000029 ], [ 35.592446879000079, 33.333970691000047 ], [ 35.599530266000045, 33.354546244000062 ], [ 35.60458982800003, 33.360842589000072 ], [ 35.609199652000029, 33.360280415000034 ], [ 35.611673215000053, 33.358706329000029 ], [ 35.616507908000074, 33.35229755000006 ], [ 35.62033068900007, 33.350498595000033 ], [ 35.62179234000007, 33.348699639000074 ], [ 35.623591296000029, 33.346113641000045 ], [ 35.627076772000066, 33.343977381000059 ], [ 35.63157416100006, 33.336556689000076 ], [ 35.631799030000025, 33.334532865000028 ], [ 35.635396941000067, 33.33014791100004 ], [ 35.63618398400007, 33.329135998000027 ], [ 35.633822855000062, 33.326437565000049 ], [ 35.633148247000065, 33.324751044000038 ], [ 35.638320244000056, 33.313170268000079 ], [ 35.643042502000071, 33.311146443000041 ], [ 35.642930067000066, 33.308672879000028 ], [ 35.639444591000029, 33.306424185000026 ], [ 35.63966946000005, 33.305187403000048 ], [ 35.643492241000047, 33.30248897000007 ], [ 35.653108209000038, 33.302283123000052 ], [ 35.655860060000066, 33.30650148400008 ], [ 35.658319569000071, 33.308433956000044 ], [ 35.663589947000048, 33.305623088000061 ], [ 35.667454890000045, 33.306677163000074 ], [ 35.668860324000036, 33.31054210700006 ], [ 35.668157607000069, 33.320731503000047 ], [ 35.669738720000055, 33.323191012000052 ], [ 35.675887494000051, 33.324947805000079 ], [ 35.680279475000077, 33.322839654000063 ], [ 35.68486821700003, 33.322839654000063 ], [ 35.691164561000051, 33.323964001000036 ], [ 35.69779821000003, 33.324638609000033 ], [ 35.703644815000075, 33.32666243400007 ], [ 35.706455683000058, 33.329360868000037 ], [ 35.707804900000042, 33.33127225800007 ], [ 35.705893509000077, 33.333633387000077 ], [ 35.700496643000065, 33.336893994000036 ], [ 35.697573340000076, 33.33936755700006 ], [ 35.698023079000052, 33.340941643000065 ], [ 35.699709600000062, 33.34139138200004 ], [ 35.704881597000053, 33.341166513000076 ], [ 35.710847664000028, 33.345677956000031 ], [ 35.712780136000049, 33.348313145000077 ], [ 35.712604457000054, 33.354637598000068 ], [ 35.71734779600007, 33.35779982400004 ], [ 35.717874834000042, 33.36465131500006 ], [ 35.71910458900004, 33.367286503000059 ], [ 35.723847929000044, 33.367813541000032 ], [ 35.724374966000028, 33.370800088000067 ], [ 35.722266815000069, 33.374665032000053 ], [ 35.721564098000044, 33.382394919000035 ], [ 35.725604721000025, 33.384327390000067 ], [ 35.726834476000079, 33.390300485000068 ], [ 35.722618174000047, 33.395043825000073 ], [ 35.729118306000032, 33.398733089000075 ], [ 35.742645608000032, 33.410152240000059 ], [ 35.747037589000058, 33.412084712000024 ], [ 35.748794382000028, 33.414544221000028 ], [ 35.745632155000067, 33.419287561000033 ], [ 35.753362042000049, 33.423679542000059 ], [ 35.753713401000027, 33.429476957000077 ], [ 35.756172910000032, 33.431233750000047 ], [ 35.757402665000029, 33.433517580000057 ], [ 35.760564891000058, 33.433693259000052 ], [ 35.763024401000052, 33.431409429000041 ], [ 35.765835269000036, 33.430179674000044 ], [ 35.775146269000061, 33.428949919000047 ], [ 35.787268137000069, 33.433868938000046 ], [ 35.796842656000024, 33.438623258000064 ], [ 35.810018599000045, 33.452073700000028 ], [ 35.822096548000047, 33.44713272100006 ], [ 35.835530740000024, 33.443594541000039 ], [ 35.839115475000028, 33.444387733000042 ], [ 35.845154449000063, 33.442740740000033 ], [ 35.853389414000048, 33.441642745000024 ], [ 35.857506896000075, 33.442740740000033 ], [ 35.871849460000078, 33.442963771000052 ], [ 35.87356507700008, 33.436959109000043 ], [ 35.878972704000034, 33.424206580000032 ] ] ] } }
]
}
